[{"OBJECT_NAME":"SPOT 7","OBJECT_ID":"2014-034A","EPOCH":"2026-03-09T22:30:32.970240","MEAN_MOTION":14.60861606,"ECCENTRICITY":0.00013975,"INCLINATION":98.074,"RA_OF_ASC_NODE":133.9442,"ARG_OF_PERICENTER":99.9915,"MEAN_ANOMALY":260.1443,"EPHEMERIS_TYPE":0,"CLASSIFICATION_TYPE":"U","NORAD_CAT_ID":40053,"ELEMENT_SET_NO":999,"REV_AT_EPOCH":62264,"BSTAR":0.00013040452,"MEAN_MOTION_DOT":5.92e-6,"MEAN_MOTION_DDOT":0},{"OBJECT_NAME":"OV1-5 DEB","OBJECT_ID":"1966-025F","EPOCH":"2026-03-09T22:08:20.474880","MEAN_MOTION":14.54739179,"ECCENTRICITY":0.00181785,"INCLINATION":144.6118,"RA_OF_ASC_NODE":125.004,"ARG_OF_PERICENTER":130.3249,"MEAN_ANOMALY":229.904,"EPHEMERIS_TYPE":0,"CLASSIFICATION_TYPE":"U","NORAD_CAT_ID":5361,"ELEMENT_SET_NO":999,"REV_AT_EPOCH":35436,"BSTAR":0.0027032725,"MEAN_MOTION_DOT":0.00012182,"MEAN_MOTION_DDOT":0}]
